[{"OBJECT_NAME":"ONEWEB-0212","OBJECT_ID":"2021-045AA","EPOCH":"2026-03-03T02:38:17.550240","MEAN_MOTION":13.15547149,"ECCENTRICITY":0.0001641,"INCLINATION":87.8957,"RA_OF_ASC_NODE":280.3625,"ARG_OF_PERICENTER":87.244,"MEAN_ANOMALY":272.8878,"EPHEMERIS_TYPE":0,"CLASSIFICATION_TYPE":"U","NORAD_CAT_ID":48791,"ELEMENT_SET_NO":999,"REV_AT_EPOCH":23048,"BSTAR":4.7684e-5,"MEAN_MOTION_DOT":3.1e-7,"MEAN_MOTION_DDOT":0},{"OBJECT_NAME":"ONEWEB-0227","OBJECT_ID":"2021-045AB","EPOCH":"2026-03-03T02:37:09.358176","MEAN_MOTION":13.15547227,"ECCENTRICITY":0.0001626,"INCLINATION":87.895,"RA_OF_ASC_NODE":280.3654,"ARG_OF_PERICENTER":91.3301,"MEAN_ANOMALY":268.8015,"EPHEMERIS_TYPE":0,"CLASSIFICATION_TYPE":"U","NORAD_CAT_ID":48792,"ELEMENT_SET_NO":999,"REV_AT_EPOCH":23043,"BSTAR":0.00010804,"MEAN_MOTION_DOT":5.3e-7,"MEAN_MOTION_DDOT":0},{"OBJECT_NAME":"ONEWEB-0226","OBJECT_ID":"2021-045AC","EPOCH":"2026-03-03T02:28:01.413696","MEAN_MOTION":13.15547678,"ECCENTRICITY":0.0001414,"INCLINATION":87.8946,"RA_OF_ASC_NODE":280.3757,"ARG_OF_PERICENTER":99.6163,"MEAN_ANOMALY":260.5127,"EPHEMERIS_TYPE":0,"CLASSIFICATION_TYPE":"U","NORAD_CAT_ID":48793,"ELEMENT_SET_NO":999,"REV_AT_EPOCH":23040,"BSTAR":-0.00018383,"MEAN_MOTION_DOT":-5.6e-7,"MEAN_MOTION_DDOT":0},{"OBJECT_NAME":"ONEWEB-0224","OBJECT_ID":"2021-045AD","EPOCH":"2026-03-03T01:35:32.980416","MEAN_MOTION":13.15548072,"ECCENTRICITY":0.0002457,"INCLINATION":87.8947,"RA_OF_ASC_NODE":280.4193,"ARG_OF_PERICENTER":95.3723,"MEAN_ANOMALY":264.7687,"EPHEMERIS_TYPE":0,"CLASSIFICATION_TYPE":"U","NORAD_CAT_ID":48794,"ELEMENT_SET_NO":999,"REV_AT_EPOCH":23032,"BSTAR":0.00047952,"MEAN_MOTION_DOT":1.93e-6,"MEAN_MOTION_DDOT":0},{"OBJECT_NAME":"ONEWEB-0233","OBJECT_ID":"2021-045AE","EPOCH":"2026-03-03T03:31:43.090464","MEAN_MOTION":13.15547257,"ECCENTRICITY":0.0001701,"INCLINATION":87.8943,"RA_OF_ASC_NODE":280.4125,"ARG_OF_PERICENTER":97.1197,"MEAN_ANOMALY":263.0127,"EPHEMERIS_TYPE":0,"CLASSIFICATION_TYPE":"U","NORAD_CAT_ID":48795,"ELEMENT_SET_NO":999,"REV_AT_EPOCH":23035,"BSTAR":0.00010464,"MEAN_MOTION_DOT":5.2e-7,"MEAN_MOTION_DDOT":0},{"OBJECT_NAME":"ONEWEB-0190","OBJECT_ID":"2021-045AF","EPOCH":"2026-03-03T03:13:39.846144","MEAN_MOTION":13.1554811,"ECCENTRICITY":0.0001637,"INCLINATION":87.8944,"RA_OF_ASC_NODE":280.3759,"ARG_OF_PERICENTER":114.4752,"MEAN_ANOMALY":245.6549,"EPHEMERIS_TYPE":0,"CLASSIFICATION_TYPE":"U","NORAD_CAT_ID":48796,"ELEMENT_SET_NO":999,"REV_AT_EPOCH":23042,"BSTAR":0.00041368,"MEAN_MOTION_DOT":1.69e-6,"MEAN_MOTION_DDOT":0},{"OBJECT_NAME":"ONEWEB-0236","OBJECT_ID":"2021-045AG","EPOCH":"2026-03-03T03:38:45.531168","MEAN_MOTION":13.15547609,"ECCENTRICITY":0.0001647,"INCLINATION":87.8941,"RA_OF_ASC_NODE":280.3837,"ARG_OF_PERICENTER":82.9106,"MEAN_ANOMALY":277.2212,"EPHEMERIS_TYPE":0,"CLASSIFICATION_TYPE":"U","NORAD_CAT_ID":48797,"ELEMENT_SET_NO":999,"REV_AT_EPOCH":23031,"BSTAR":-0.0001543,"MEAN_MOTION_DOT":-4.5e-7,"MEAN_MOTION_DDOT":0},{"OBJECT_NAME":"ONEWEB-0248","OBJECT_ID":"2021-045AH","EPOCH":"2026-03-03T03:57:02.057760","MEAN_MOTION":13.15549922,"ECCENTRICITY":0.000192,"INCLINATION":87.8957,"RA_OF_ASC_NODE":280.3538,"ARG_OF_PERICENTER":101.3292,"MEAN_ANOMALY":258.8054,"EPHEMERIS_TYPE":0,"CLASSIFICATION_TYPE":"U","NORAD_CAT_ID":48798,"ELEMENT_SET_NO":999,"REV_AT_EPOCH":23047,"BSTAR":-0.00030689,"MEAN_MOTION_DOT":-1.03e-6,"MEAN_MOTION_DDOT":0},{"OBJECT_NAME":"ONEWEB-0225","OBJECT_ID":"2021-045AJ","EPOCH":"2026-03-03T02:39:25.998912","MEAN_MOTION":13.15547127,"ECCENTRICITY":0.0001658,"INCLINATION":87.8944,"RA_OF_ASC_NODE":280.3809,"ARG_OF_PERICENTER":109.7196,"MEAN_ANOMALY":250.4113,"EPHEMERIS_TYPE":0,"CLASSIFICATION_TYPE":"U","NORAD_CAT_ID":48799,"ELEMENT_SET_NO":999,"REV_AT_EPOCH":23047,"BSTAR":0.00017784,"MEAN_MOTION_DOT":8.0e-7,"MEAN_MOTION_DDOT":0},{"OBJECT_NAME":"ONEWEB-0215","OBJECT_ID":"2021-045AK","EPOCH":"2026-03-03T03:45:36.974880","MEAN_MOTION":13.15547496,"ECCENTRICITY":0.0001829,"INCLINATION":87.896,"RA_OF_ASC_NODE":280.3438,"ARG_OF_PERICENTER":111.7268,"MEAN_ANOMALY":248.4057,"EPHEMERIS_TYPE":0,"CLASSIFICATION_TYPE":"U","NORAD_CAT_ID":48800,"ELEMENT_SET_NO":999,"REV_AT_EPOCH":23035,"BSTAR":-0.0002783,"MEAN_MOTION_DOT":-9.2e-7,"MEAN_MOTION_DDOT":0},{"OBJECT_NAME":"ONEWEB-0216","OBJECT_ID":"2021-045AL","EPOCH":"2026-03-03T02:09:47.172384","MEAN_MOTION":13.15536985,"ECCENTRICITY":0.0001422,"INCLINATION":87.8948,"RA_OF_ASC_NODE":280.3777,"ARG_OF_PERICENTER":89.0115,"MEAN_ANOMALY":271.1179,"EPHEMERIS_TYPE":0,"CLASSIFICATION_TYPE":"U","NORAD_CAT_ID":48801,"ELEMENT_SET_NO":999,"REV_AT_EPOCH":23035,"BSTAR":-0.0034218,"MEAN_MOTION_DOT":-1.275e-5,"MEAN_MOTION_DDOT":0},{"OBJECT_NAME":"ONEWEB-0239","OBJECT_ID":"2021-045AM","EPOCH":"2026-03-03T02:16:37.117920","MEAN_MOTION":13.15547077,"ECCENTRICITY":0.0002099,"INCLINATION":87.8946,"RA_OF_ASC_NODE":280.3904,"ARG_OF_PERICENTER":109.5395,"MEAN_ANOMALY":250.5962,"EPHEMERIS_TYPE":0,"CLASSIFICATION_TYPE":"U","NORAD_CAT_ID":48802,"ELEMENT_SET_NO":999,"REV_AT_EPOCH":23039,"BSTAR":-0.00022157,"MEAN_MOTION_DOT":-7.1e-7,"MEAN_MOTION_DDOT":0},{"OBJECT_NAME":"ONEWEB-0249","OBJECT_ID":"2021-060A","EPOCH":"2026-03-03T00:53:28.722336","MEAN_MOTION":13.16593274,"ECCENTRICITY":0.0001727,"INCLINATION":87.9,"RA_OF_ASC_NODE":249.8955,"ARG_OF_PERICENTER":96.3584,"MEAN_ANOMALY":263.7744,"EPHEMERIS_TYPE":0,"CLASSIFICATION_TYPE":"U","NORAD_CAT_ID":48967,"ELEMENT_SET_NO":999,"REV_AT_EPOCH":22564,"BSTAR":0.00016128,"MEAN_MOTION_DOT":7.5e-7,"MEAN_MOTION_DDOT":0},{"OBJECT_NAME":"ONEWEB-0250","OBJECT_ID":"2021-060B","EPOCH":"2026-03-03T01:10:04.216224","MEAN_MOTION":13.25827017,"ECCENTRICITY":0.0002669,"INCLINATION":87.9001,"RA_OF_ASC_NODE":247.9946,"ARG_OF_PERICENTER":90.1468,"MEAN_ANOMALY":269.9974,"EPHEMERIS_TYPE":0,"CLASSIFICATION_TYPE":"U","NORAD_CAT_ID":48968,"ELEMENT_SET_NO":999,"REV_AT_EPOCH":22615,"BSTAR":-8.4549e-6,"MEAN_MOTION_DOT":9.0e-8,"MEAN_MOTION_DDOT":0},{"OBJECT_NAME":"ONEWEB-0252","OBJECT_ID":"2021-060D","EPOCH":"2026-03-03T01:37:55.685568","MEAN_MOTION":13.16593456,"ECCENTRICITY":0.0001366,"INCLINATION":87.8999,"RA_OF_ASC_NODE":249.882,"ARG_OF_PERICENTER":95.7321,"MEAN_ANOMALY":264.3966,"EPHEMERIS_TYPE":0,"CLASSIFICATION_TYPE":"U","NORAD_CAT_ID":48970,"ELEMENT_SET_NO":999,"REV_AT_EPOCH":22569,"BSTAR":2.5541e-5,"MEAN_MOTION_DOT":2.3e-7,"MEAN_MOTION_DDOT":0},{"OBJECT_NAME":"ONEWEB-0253","OBJECT_ID":"2021-060E","EPOCH":"2026-03-02T21:43:05.858688","MEAN_MOTION":13.16593092,"ECCENTRICITY":0.000164,"INCLINATION":87.8999,"RA_OF_ASC_NODE":249.9202,"ARG_OF_PERICENTER":99.6442,"MEAN_ANOMALY":260.4875,"EPHEMERIS_TYPE":0,"CLASSIFICATION_TYPE":"U","NORAD_CAT_ID":48971,"ELEMENT_SET_NO":999,"REV_AT_EPOCH":22560,"BSTAR":7.5675e-5,"MEAN_MOTION_DOT":4.2e-7,"MEAN_MOTION_DDOT":0},{"OBJECT_NAME":"ONEWEB-0254","OBJECT_ID":"2021-060F","EPOCH":"2026-03-03T01:35:38.893632","MEAN_MOTION":13.16593193,"ECCENTRICITY":0.0001848,"INCLINATION":87.9003,"RA_OF_ASC_NODE":249.8823,"ARG_OF_PERICENTER":101.457,"MEAN_ANOMALY":258.6769,"EPHEMERIS_TYPE":0,"CLASSIFICATION_TYPE":"U","NORAD_CAT_ID":48972,"ELEMENT_SET_NO":999,"REV_AT_EPOCH":22562,"BSTAR":-3.5905e-5,"MEAN_MOTION_DOT":-1.0e-8,"MEAN_MOTION_DDOT":0}]
